start=new Date('2023-04-29T00:00:00.000Z').valueOf();
sats=[{"COUNTRY_CODE":"US","MEAN_MOTION_DDOT":"0.0000000000000","ECCENTRICITY":"0.00016920","RA_OF_ASC_NODE":"124.0073","CENTER_NAME":"EARTH","FILE":"3895770","MEAN_MOTION_DOT":"0.00007882","LAUNCH_DATE":"2020-04-22","OBJECT_NAME":"STARLINK-1350","ELEMENT_SET_NO":"999","REV_AT_EPOCH":"16738","EPHEMERIS_TYPE":"0","PERIOD":"95.592","NORAD_CAT_ID":"45535","OBJECT_TYPE":"PAYLOAD","EPOCH":"2023-04-28T07:22:34.290048","RCS_SIZE":"LARGE","MEAN_ELEMENT_THEORY":"SGP4","SITE":"AFETR","OBJECT_ID":"2020-025E","ARG_OF_PERICENTER":"74.5629","TLE_LINE1":"1 45535U 20025E   23118.30734132  .00007882  00000-0  54740-3 0  9997","PERIAPSIS":"546.034","TLE_LINE2":"2 45535  53.0530 124.0073 0001692  74.5629 285.5547 15.06402394167383","REF_FRAME":"TEME","INCLINATION":"53.0530","CLASSIFICATION_TYPE":"U","MEAN_MOTION":"15.06402394","SEMIMAJOR_AXIS":"6925.341","GP_ID":"230883135","MEAN_ANOMALY":"285.5547","TIME_SYSTEM":"UTC","DECAY_DATE":null,"APOAPSIS":"548.378","BSTAR":"0.00054740000000"},{"PERIOD":"95.592","EPHEMERIS_TYPE":"0","ELEMENT_SET_NO":"999","REV_AT_EPOCH":"16740","MEAN_ELEMENT_THEORY":"SGP4","RCS_SIZE":"LARGE","OBJECT_TYPE":"PAYLOAD","EPOCH":"2023-04-28T12:14:30.044544","NORAD_CAT_ID":"45536","ECCENTRICITY":"0.00015900","MEAN_MOTION_DDOT":"0.0000000000000","COUNTRY_CODE":"US","LAUNCH_DATE":"2020-04-22","OBJECT_NAME":"STARLINK-1352","MEAN_MOTION_DOT":"0.00007128","FILE":"3895770","RA_OF_ASC_NODE":"123.0977","CENTER_NAME":"EARTH","MEAN_ANOMALY":"277.4353","GP_ID":"230882886","BSTAR":"0.00049688000000","APOAPSIS":"548.300","DECAY_DATE":null,"TIME_SYSTEM":"UTC","TLE_LINE1":"1 45536U 20025F   23118.51006996  .00007128  00000-0  49688-3 0  9999","ARG_OF_PERICENTER":"82.6816","OBJECT_ID":"2020-025F","SITE":"AFETR","SEMIMAJOR_AXIS":"6925.334","MEAN_MOTION":"15.06404641","CLASSIFICATION_TYPE":"U","REF_FRAME":"TEME","TLE_LINE2":"2 45536  53.0532 123.0977 0001590  82.6816 277.4353 15.06404641167408","PERIAPSIS":"546.098","INCLINATION":"53.0532"},{"SEMIMAJOR_AXIS":"6925.373","MEAN_MOTION":"15.06392101","CLASSIFICATION_TYPE":"U","INCLINATION":"53.0530","TLE_LINE2":"2 45538  53.0530 123.5798 0001586  76.8828 283.2338 15.06392101167390","PERIAPSIS":"546.139","REF_FRAME":"TEME","TLE_LINE1":"1 45538U 20025H   23118.40316779  .00002084  00000-0  15880-3 0  9995","ARG_OF_PERICENTER":"76.8828","OBJECT_ID":"2020-025H","SITE":"AFETR","BSTAR":"0.00015880000000","DECAY_DATE":null,"APOAPSIS":"548.336","TIME_SYSTEM":"UTC","MEAN_ANOMALY":"283.2338","GP_ID":"230882135","OBJECT_NAME":"STARLINK-1362","LAUNCH_DATE":"2020-04-22","FILE":"3895770","MEAN_MOTION_DOT":"0.00002084","CENTER_NAME":"EARTH","RA_OF_ASC_NODE":"123.5798","ECCENTRICITY":"0.00015860","MEAN_MOTION_DDOT":"0.0000000000000","COUNTRY_CODE":"US","MEAN_ELEMENT_THEORY":"SGP4","RCS_SIZE":"LARGE","EPOCH":"2023-04-28T09:40:33.697056","OBJECT_TYPE":"PAYLOAD","NORAD_CAT_ID":"45538","PERIOD":"95.593","EPHEMERIS_TYPE":"0","REV_AT_EPOCH":"16739","ELEMENT_SET_NO":"999"},{"MEAN_ELEMENT_THEORY":"SGP4","RCS_SIZE":"LARGE","EPOCH":"2023-04-28T17:06:25.263360","OBJECT_TYPE":"PAYLOAD","NORAD_CAT_ID":"45540","PERIOD":"95.591","EPHEMERIS_TYPE":"0","REV_AT_EPOCH":"16685","ELEMENT_SET_NO":"999","OBJECT_NAME":"STARLINK-1368","LAUNCH_DATE":"2020-04-22","MEAN_MOTION_DOT":"0.00006721","FILE":"3895796","CENTER_NAME":"EARTH","RA_OF_ASC_NODE":"122.1880","ECCENTRICITY":"0.00016610","MEAN_MOTION_DDOT":"0.0000000000000","COUNTRY_CODE":"US","BSTAR":"0.00046954000000","APOAPSIS":"548.333","DECAY_DATE":null,"TIME_SYSTEM":"UTC","MEAN_ANOMALY":"276.3210","GP_ID":"230890044","SEMIMAJOR_AXIS":"6925.318","MEAN_MOTION":"15.06410109","CLASSIFICATION_TYPE":"U","INCLINATION":"53.0530","REF_FRAME":"TEME","TLE_LINE2":"2 45540  53.0530 122.1880 0001661  83.7968 276.3210 15.06410109166857","PERIAPSIS":"546.032","TLE_LINE1":"1 45540U 20025K   23118.71279240  .00006721  00000-0  46954-3 0  9991","ARG_OF_PERICENTER":"83.7968","OBJECT_ID":"2020-025K","SITE":"AFETR"},{"APOAPSIS":"548.282","DECAY_DATE":null,"TIME_SYSTEM":"UTC","BSTAR":"0.00045898000000","GP_ID":"230890288","MEAN_ANOMALY":"281.1453","CLASSIFICATION_TYPE":"U","TLE_LINE2":"2 45541  53.0530 122.1713 0001569  78.9712 281.1453 15.06405903166852","REF_FRAME":"TEME","PERIAPSIS":"546.109","INCLINATION":"53.0530","SEMIMAJOR_AXIS":"6925.330","MEAN_MOTION":"15.06405903","SITE":"AFETR","TLE_LINE1":"1 45541U 20025L   23118.71648180  .00006563  00000-0  45898-3 0  9995","ARG_OF_PERICENTER":"78.9712","OBJECT_ID":"2020-025L","OBJECT_TYPE":"PAYLOAD","EPOCH":"2023-04-28T17:11:44.027520","NORAD_CAT_ID":"45541","MEAN_ELEMENT_THEORY":"SGP4","RCS_SIZE":"LARGE","EPHEMERIS_TYPE":"0","ELEMENT_SET_NO":"999","REV_AT_EPOCH":"16685","PERIOD":"95.592","FILE":"3895796","MEAN_MOTION_DOT":"0.00006563","RA_OF_ASC_NODE":"122.1713","CENTER_NAME":"EARTH","LAUNCH_DATE":"2020-04-22","OBJECT_NAME":"STARLINK-1369","COUNTRY_CODE":"US","ECCENTRICITY":"0.00015690","MEAN_MOTION_DDOT":"0.0000000000000"},{"ELEMENT_SET_NO":"999","REV_AT_EPOCH":"16740","EPHEMERIS_TYPE":"0","PERIOD":"95.592","NORAD_CAT_ID":"45542","OBJECT_TYPE":"PAYLOAD","EPOCH":"2023-04-28T11:37:21.658944","RCS_SIZE":"LARGE","MEAN_ELEMENT_THEORY":"SGP4","COUNTRY_CODE":"US","MEAN_MOTION_DDOT":"0.0000000000000","ECCENTRICITY":"0.00012320","RA_OF_ASC_NODE":"123.2141","CENTER_NAME":"EARTH","MEAN_MOTION_DOT":"0.00008700","FILE":"3895770","LAUNCH_DATE":"2020-04-22","OBJECT_NAME":"STARLINK-1371","GP_ID":"230883385","MEAN_ANOMALY":"278.5120","TIME_SYSTEM":"UTC","DECAY_DATE":null,"APOAPSIS":"548.066","BSTAR":"0.00060222000000","SITE":"AFETR","OBJECT_ID":"2020-025M","TLE_LINE1":"1 45542U 20025M   23118.48427846  .00008700  00000-0  60222-3 0  9997","ARG_OF_PERICENTER":"81.6009","REF_FRAME":"TEME","TLE_LINE2":"2 45542  53.0521 123.2141 0001232  81.6009 278.5120 15.06400162167402","PERIAPSIS":"546.360","INCLINATION":"53.0521","CLASSIFICATION_TYPE":"U","MEAN_MOTION":"15.06400162","SEMIMAJOR_AXIS":"6925.348"},{"EPHEMERIS_TYPE":"0","REV_AT_EPOCH":"16685","ELEMENT_SET_NO":"999","PERIOD":"95.592","EPOCH":"2023-04-28T17:17:02.852160","OBJECT_TYPE":"PAYLOAD","NORAD_CAT_ID":"45543","MEAN_ELEMENT_THEORY":"SGP4","RCS_SIZE":"LARGE","COUNTRY_CODE":"US","ECCENTRICITY":"0.00013610","MEAN_MOTION_DDOT":"0.0000000000000","FILE":"3895796","MEAN_MOTION_DOT":"0.00006968","CENTER_NAME":"EARTH","RA_OF_ASC_NODE":"122.1534","OBJECT_NAME":"STARLINK-1372","LAUNCH_DATE":"2020-04-22","GP_ID":"230890040","MEAN_ANOMALY":"279.3531","DECAY_DATE":null,"APOAPSIS":"548.142","TIME_SYSTEM":"UTC","BSTAR":"0.00048614000000","SITE":"AFETR","TLE_LINE1":"1 45543U 20025N   23118.72017190  .00006968  00000-0  48614-3 0  9997","ARG_OF_PERICENTER":"80.7612","OBJECT_ID":"2020-025N","CLASSIFICATION_TYPE":"U","INCLINATION":"53.0536","TLE_LINE2":"2 45543  53.0536 122.1534 0001361  80.7612 279.3531 15.06404707166858","PERIAPSIS":"546.257","REF_FRAME":"TEME","SEMIMAJOR_AXIS":"6925.334","MEAN_MOTION":"15.06404707"},{"COUNTRY_CODE":"US","ECCENTRICITY":"0.00014920","MEAN_MOTION_DDOT":"0.0000000000000","MEAN_MOTION_DOT":"0.00008196","FILE":"3895816","CENTER_NAME":"EARTH","RA_OF_ASC_NODE":"122.0732","OBJECT_NAME":"STARLINK-1373","LAUNCH_DATE":"2020-04-22","EPHEMERIS_TYPE":"0","REV_AT_EPOCH":"16684","ELEMENT_SET_NO":"999","PERIOD":"95.592","EPOCH":"2023-04-28T17:43:35.167008","OBJECT_TYPE":"PAYLOAD","NORAD_CAT_ID":"45544","MEAN_ELEMENT_THEORY":"SGP4","RCS_SIZE":"LARGE","SITE":"AFETR","ARG_OF_PERICENTER":"73.2096","TLE_LINE1":"1 45544U 20025P   23118.73860147  .00008196  00000-0  56838-3 0  9999","OBJECT_ID":"2020-025P","CLASSIFICATION_TYPE":"U","INCLINATION":"53.0520","TLE_LINE2":"2 45544  53.0520 122.0732 0001492  73.2096 286.9056 15.06406681166847","PERIAPSIS":"546.160","REF_FRAME":"TEME","SEMIMAJOR_AXIS":"6925.328","MEAN_MOTION":"15.06406681","GP_ID":"230890574","MEAN_ANOMALY":"286.9056","DECAY_DATE":null,"APOAPSIS":"548.226","TIME_SYSTEM":"UTC","BSTAR":"0.00056838000000"},{"MEAN_ELEMENT_THEORY":"SGP4","RCS_SIZE":"LARGE","OBJECT_TYPE":"PAYLOAD","EPOCH":"2023-04-28T11:47:59.215776","NORAD_CAT_ID":"45545","PERIOD":"95.591","EPHEMERIS_TYPE":"0","ELEMENT_SET_NO":"999","REV_AT_EPOCH":"16738","LAUNCH_DATE":"2020-04-22","OBJECT_NAME":"STARLINK-1374","FILE":"3895770","MEAN_MOTION_DOT":"0.00014995","RA_OF_ASC_NODE":"123.1787","CENTER_NAME":"EARTH","ECCENTRICITY":"0.00012710","MEAN_MOTION_DDOT":"0.0000000000000","COUNTRY_CODE":"US","BSTAR":"0.00102290000000","DECAY_DATE":null,"APOAPSIS":"548.038","TIME_SYSTEM":"UTC","MEAN_ANOMALY":"275.0885","GP_ID":"230883136","SEMIMAJOR_AXIS":"6925.293","MEAN_MOTION":"15.06418032","CLASSIFICATION_TYPE":"U","REF_FRAME":"TEME","TLE_LINE2":"2 45545  53.0528 123.1787 0001271  85.0249 275.0885 15.06418032167386","PERIAPSIS":"546.278","INCLINATION":"53.0528","TLE_LINE1":"1 45545U 20025Q   23118.49165759  .00014995  00000-0  10229-2 0  9997","ARG_OF_PERICENTER":"85.0249","OBJECT_ID":"2020-025Q","SITE":"AFETR"},{"MEAN_MOTION":"15.06403346","SEMIMAJOR_AXIS":"6925.338","INCLINATION":"53.0537","TLE_LINE2":"2 45546  53.0537 124.0250 0001384  83.9602 276.1544 15.06403346167372","REF_FRAME":"TEME","PERIAPSIS":"546.245","CLASSIFICATION_TYPE":"U","OBJECT_ID":"2020-025R","TLE_LINE1":"1 45546U 20025R   23118.30365082  .00007857  00000-0  54570-3 0  9996","ARG_OF_PERICENTER":"83.9602","SITE":"AFETR","BSTAR":"0.00054570000000","TIME_SYSTEM":"UTC","DECAY_DATE":null,"APOAPSIS":"548.162","MEAN_ANOMALY":"276.1544","GP_ID":"230882887","OBJECT_NAME":"STARLINK-1375","LAUNCH_DATE":"2020-04-22","CENTER_NAME":"EARTH","RA_OF_ASC_NODE":"124.0250","FILE":"3895770","MEAN_MOTION_DOT":"0.00007857","MEAN_MOTION_DDOT":"0.0000000000000","ECCENTRICITY":"0.00013840","COUNTRY_CODE":"US","RCS_SIZE":"LARGE","MEAN_ELEMENT_THEORY":"SGP4","NORAD_CAT_ID":"45546","EPOCH":"2023-04-28T07:17:15.430848","OBJECT_TYPE":"PAYLOAD","PERIOD":"95.592","REV_AT_EPOCH":"16737","ELEMENT_SET_NO":"999","EPHEMERIS_TYPE":"0"}];
